start=new Date('2022-06-30T00:00:00.000Z').valueOf();
sats=[{"ARG_OF_PERICENTER":"80.5105","GP_ID":"207119348","SEMIMAJOR_AXIS":"6925.349","REV_AT_EPOCH":"7009","COUNTRY_CODE":"US","RA_OF_ASC_NODE":"36.7097","TIME_SYSTEM":"UTC","LAUNCH_DATE":"2021-04-07","OBJECT_TYPE":"PAYLOAD","EPOCH":"2022-06-29T21:20:42.071712","EPHEMERIS_TYPE":"0","ELEMENT_SET_NO":"999","RCS_SIZE":"LARGE","INCLINATION":"53.0563","APOAPSIS":"548.114","MEAN_ELEMENT_THEORY":"SGP4","SITE":"AFETR","MEAN_MOTION":"15.06399786","DECAY_DATE":null,"PERIAPSIS":"546.315","MEAN_ANOMALY":"279.6030","OBJECT_ID":"2021-027AN","TLE_LINE1":"1 48128U 21027AN  22180.88937583  .00000828  00000-0  74455-4 0  9996","TLE_LINE2":"2 48128  53.0563  36.7097 0001299  80.5105 279.6030 15.06399786 70096","REF_FRAME":"TEME","CLASSIFICATION_TYPE":"U","BSTAR":"0.00007445500000","MEAN_MOTION_DOT":"0.00000828","OBJECT_NAME":"STARLINK-2469","FILE":"3505610","NORAD_CAT_ID":"48128","CENTER_NAME":"EARTH","MEAN_MOTION_DDOT":"0.0000000000000","PERIOD":"95.592","ECCENTRICITY":"0.00012990"},{"TLE_LINE2":"2 48129  53.0548 108.3591 0001597  58.7799 301.3347 15.06388725 69062","TLE_LINE1":"1 48129U 21027AP  22180.50326990  .00000906  00000-0  79708-4 0  9993","OBJECT_ID":"2021-027AP","MEAN_ANOMALY":"301.3347","DECAY_DATE":null,"PERIAPSIS":"546.142","MEAN_MOTION":"15.06388725","SITE":"AFETR","ECCENTRICITY":"0.00015970","MEAN_MOTION_DDOT":"0.0000000000000","PERIOD":"95.593","NORAD_CAT_ID":"48129","FILE":"3505485","CENTER_NAME":"EARTH","OBJECT_NAME":"STARLINK-2471","MEAN_MOTION_DOT":"0.00000906","REF_FRAME":"TEME","BSTAR":"0.00007970800000","CLASSIFICATION_TYPE":"U","REV_AT_EPOCH":"6906","SEMIMAJOR_AXIS":"6925.383","GP_ID":"207091174","ARG_OF_PERICENTER":"58.7799","MEAN_ELEMENT_THEORY":"SGP4","APOAPSIS":"548.354","RCS_SIZE":"LARGE","INCLINATION":"53.0548","EPHEMERIS_TYPE":"0","ELEMENT_SET_NO":"999","EPOCH":"2022-06-29T12:04:42.519360","RA_OF_ASC_NODE":"108.3591","TIME_SYSTEM":"UTC","LAUNCH_DATE":"2021-04-07","OBJECT_TYPE":"PAYLOAD","COUNTRY_CODE":"US"},{"ARG_OF_PERICENTER":"68.9704","GP_ID":"207090924","SEMIMAJOR_AXIS":"6925.385","REV_AT_EPOCH":"6895","COUNTRY_CODE":"US","TIME_SYSTEM":"UTC","RA_OF_ASC_NODE":"114.5958","OBJECT_TYPE":"PAYLOAD","LAUNCH_DATE":"2021-04-07","EPOCH":"2022-06-29T05:27:15.964704","EPHEMERIS_TYPE":"0","ELEMENT_SET_NO":"999","RCS_SIZE":"LARGE","INCLINATION":"53.0559","APOAPSIS":"548.511","MEAN_ELEMENT_THEORY":"SGP4","SITE":"AFETR","MEAN_MOTION":"15.06388229","DECAY_DATE":null,"PERIAPSIS":"545.988","MEAN_ANOMALY":"291.1480","OBJECT_ID":"2021-027AQ","TLE_LINE1":"1 48130U 21027AQ  22180.22726811 -.00001532  00000-0 -83960-4 0  9993","TLE_LINE2":"2 48130  53.0559 114.5958 0001822  68.9704 291.1480 15.06388229 68952","REF_FRAME":"TEME","BSTAR":"-0.00008396000000","CLASSIFICATION_TYPE":"U","OBJECT_NAME":"STARLINK-2472","MEAN_MOTION_DOT":"-0.00001532","NORAD_CAT_ID":"48130","FILE":"3505485","CENTER_NAME":"EARTH","MEAN_MOTION_DDOT":"0.0000000000000","PERIOD":"95.593","ECCENTRICITY":"0.00018220"},{"NORAD_CAT_ID":"48131","FILE":"3505610","CENTER_NAME":"EARTH","PERIOD":"95.593","MEAN_MOTION_DDOT":"0.0000000000000","ECCENTRICITY":"0.00014550","CLASSIFICATION_TYPE":"U","BSTAR":"0.00005645100000","REF_FRAME":"TEME","MEAN_MOTION_DOT":"0.00000559","OBJECT_NAME":"STARLINK-2473","PERIAPSIS":"546.236","DECAY_DATE":null,"MEAN_ANOMALY":"297.0565","OBJECT_ID":"2021-027AR","TLE_LINE1":"1 48131U 21027AR  22180.91057012  .00000559  00000-0  56451-4 0  9991","TLE_LINE2":"2 48131  53.0547  86.5164 0001455  63.0573 297.0565 15.06390346 69402","SITE":"AFETR","MEAN_MOTION":"15.06390346","INCLINATION":"53.0547","RCS_SIZE":"LARGE","APOAPSIS":"548.251","MEAN_ELEMENT_THEORY":"SGP4","COUNTRY_CODE":"US","OBJECT_TYPE":"PAYLOAD","LAUNCH_DATE":"2021-04-07","TIME_SYSTEM":"UTC","RA_OF_ASC_NODE":"86.5164","EPOCH":"2022-06-29T21:51:13.258368","ELEMENT_SET_NO":"999","EPHEMERIS_TYPE":"0","REV_AT_EPOCH":"6940","ARG_OF_PERICENTER":"63.0573","GP_ID":"207119598","SEMIMAJOR_AXIS":"6925.378"},{"RA_OF_ASC_NODE":"108.4145","TIME_SYSTEM":"UTC","OBJECT_TYPE":"PAYLOAD","LAUNCH_DATE":"2021-04-07","COUNTRY_CODE":"US","EPHEMERIS_TYPE":"0","ELEMENT_SET_NO":"999","EPOCH":"2022-06-29T11:48:47.100384","APOAPSIS":"548.375","RCS_SIZE":"LARGE","INCLINATION":"53.0552","MEAN_ELEMENT_THEORY":"SGP4","ARG_OF_PERICENTER":"70.8215","SEMIMAJOR_AXIS":"6925.371","GP_ID":"207092425","REV_AT_EPOCH":"6905","REF_FRAME":"TEME","BSTAR":"0.00006738400000","CLASSIFICATION_TYPE":"U","OBJECT_NAME":"STARLINK-2474","MEAN_MOTION_DOT":"0.00000722","FILE":"3505485","NORAD_CAT_ID":"48132","CENTER_NAME":"EARTH","ECCENTRICITY":"0.00016450","MEAN_MOTION_DDOT":"0.0000000000000","PERIOD":"95.593","SITE":"AFETR","MEAN_MOTION":"15.06392771","OBJECT_ID":"2021-027AS","MEAN_ANOMALY":"289.2952","DECAY_DATE":null,"PERIAPSIS":"546.096","TLE_LINE2":"2 48132  53.0552 108.4145 0001645  70.8215 289.2952 15.06392771 69050","TLE_LINE1":"1 48132U 21027AS  22180.49221181  .00000722  00000-0  67384-4 0  9994"},{"CENTER_NAME":"EARTH","FILE":"3505485","NORAD_CAT_ID":"48133","ECCENTRICITY":"0.00015780","PERIOD":"95.593","MEAN_MOTION_DDOT":"0.0000000000000","BSTAR":"-0.00004489900000","CLASSIFICATION_TYPE":"U","REF_FRAME":"TEME","OBJECT_NAME":"STARLINK-2475","MEAN_MOTION_DOT":"-0.00000950","MEAN_ANOMALY":"297.0140","OBJECT_ID":"2021-027AT","PERIAPSIS":"546.152","DECAY_DATE":null,"TLE_LINE2":"2 48133  53.0549 108.4303 0001578  63.1010 297.0140 15.06389897 69068","TLE_LINE1":"1 48133U 21027AT  22180.48853079 -.00000950  00000-0 -44899-4 0  9992","SITE":"AFETR","MEAN_MOTION":"15.06389897","APOAPSIS":"548.337","INCLINATION":"53.0549","RCS_SIZE":"LARGE","MEAN_ELEMENT_THEORY":"SGP4","OBJECT_TYPE":"PAYLOAD","LAUNCH_DATE":"2021-04-07","RA_OF_ASC_NODE":"108.4303","TIME_SYSTEM":"UTC","COUNTRY_CODE":"US","ELEMENT_SET_NO":"999","EPHEMERIS_TYPE":"0","EPOCH":"2022-06-29T11:43:29.060256","REV_AT_EPOCH":"6906","ARG_OF_PERICENTER":"63.1010","GP_ID":"207090674","SEMIMAJOR_AXIS":"6925.380"},{"SITE":"AFETR","MEAN_MOTION":"15.06384506","TLE_LINE2":"2 48134  53.0546 108.1944 0001606  63.1709 296.9444 15.06384506 68674","TLE_LINE1":"1 48134U 21027AU  22180.54014062 -.00000928  00000-0 -43426-4 0  9991","OBJECT_ID":"2021-027AU","MEAN_ANOMALY":"296.9444","PERIAPSIS":"546.149","DECAY_DATE":null,"OBJECT_NAME":"STARLINK-2476","MEAN_MOTION_DOT":"-0.00000928","CLASSIFICATION_TYPE":"U","BSTAR":"-0.00004342600000","REF_FRAME":"TEME","ECCENTRICITY":"0.00016060","PERIOD":"95.593","MEAN_MOTION_DDOT":"0.0000000000000","CENTER_NAME":"EARTH","FILE":"3505571","NORAD_CAT_ID":"48134","SEMIMAJOR_AXIS":"6925.396","GP_ID":"207096645","ARG_OF_PERICENTER":"63.1709","REV_AT_EPOCH":"6867","ELEMENT_SET_NO":"999","EPHEMERIS_TYPE":"0","EPOCH":"2022-06-29T12:57:48.149568","OBJECT_TYPE":"PAYLOAD","LAUNCH_DATE":"2021-04-07","TIME_SYSTEM":"UTC","RA_OF_ASC_NODE":"108.1944","COUNTRY_CODE":"US","MEAN_ELEMENT_THEORY":"SGP4","APOAPSIS":"548.373","INCLINATION":"53.0546","RCS_SIZE":"LARGE"},{"RCS_SIZE":"LARGE","INCLINATION":"53.0547","APOAPSIS":"548.412","MEAN_ELEMENT_THEORY":"SGP4","COUNTRY_CODE":"US","LAUNCH_DATE":"2021-04-07","OBJECT_TYPE":"PAYLOAD","TIME_SYSTEM":"UTC","RA_OF_ASC_NODE":"113.3449","EPOCH":"2022-06-29T12:59:47.847264","ELEMENT_SET_NO":"999","EPHEMERIS_TYPE":"0","REV_AT_EPOCH":"6899","ARG_OF_PERICENTER":"74.8491","GP_ID":"207091676","SEMIMAJOR_AXIS":"6925.356","FILE":"3505485","CENTER_NAME":"EARTH","NORAD_CAT_ID":"48135","PERIOD":"95.592","MEAN_MOTION_DDOT":"0.0000000000000","ECCENTRICITY":"0.00017200","BSTAR":"0.00007293300000","CLASSIFICATION_TYPE":"U","REF_FRAME":"TEME","OBJECT_NAME":"STARLINK-2478","MEAN_MOTION_DOT":"0.00000805","PERIAPSIS":"546.030","DECAY_DATE":null,"MEAN_ANOMALY":"285.2688","OBJECT_ID":"2021-027AV","TLE_LINE1":"1 48135U 21027AV  22180.54152601  .00000805  00000-0  72933-4 0  9991","TLE_LINE2":"2 48135  53.0547 113.3449 0001720  74.8491 285.2688 15.06397503 68995","MEAN_MOTION":"15.06397503","SITE":"AFETR"},{"COUNTRY_CODE":"US","RA_OF_ASC_NODE":"108.3641","TIME_SYSTEM":"UTC","LAUNCH_DATE":"2021-04-07","OBJECT_TYPE":"PAYLOAD","EPOCH":"2022-06-29T11:58:02.264448","EPHEMERIS_TYPE":"0","ELEMENT_SET_NO":"999","INCLINATION":"53.0545","RCS_SIZE":"LARGE","APOAPSIS":"548.465","MEAN_ELEMENT_THEORY":"SGP4","ARG_OF_PERICENTER":"64.6986","SEMIMAJOR_AXIS":"6925.381","GP_ID":"207091925","REV_AT_EPOCH":"6906","REF_FRAME":"TEME","CLASSIFICATION_TYPE":"U","BSTAR":"0.00004182800000","MEAN_MOTION_DOT":"0.00000341","OBJECT_NAME":"STARLINK-2479","FILE":"3505485","CENTER_NAME":"EARTH","NORAD_CAT_ID":"48136","MEAN_MOTION_DDOT":"0.0000000000000","PERIOD":"95.593","ECCENTRICITY":"0.00017600","SITE":"AFETR","MEAN_MOTION":"15.06389329","DECAY_DATE":null,"PERIAPSIS":"546.027","OBJECT_ID":"2021-027AW","MEAN_ANOMALY":"295.4185","TLE_LINE1":"1 48136U 21027AW  22180.49863732  .00000341  00000-0  41828-4 0  9994","TLE_LINE2":"2 48136  53.0545 108.3641 0001760  64.6986 295.4185 15.06389329 69063"},{"TLE_LINE1":"1 48137U 21027AX  22180.85527942  .00000526  00000-0  54243-4 0  9995","TLE_LINE2":"2 48137  53.0562  86.7497 0001444  63.8339 296.2798 15.06391583 69393","PERIAPSIS":"546.239","DECAY_DATE":null,"MEAN_ANOMALY":"296.2798","OBJECT_ID":"2021-027AX","MEAN_MOTION":"15.06391583","SITE":"AFETR","PERIOD":"95.593","MEAN_MOTION_DDOT":"0.0000000000000","ECCENTRICITY":"0.00014440","NORAD_CAT_ID":"48137","FILE":"3505610","CENTER_NAME":"EARTH","OBJECT_NAME":"STARLINK-2480","MEAN_MOTION_DOT":"0.00000526","CLASSIFICATION_TYPE":"U","BSTAR":"0.00005424300000","REF_FRAME":"TEME","REV_AT_EPOCH":"6939","GP_ID":"207118600","SEMIMAJOR_AXIS":"6925.374","ARG_OF_PERICENTER":"63.8339","MEAN_ELEMENT_THEORY":"SGP4","RCS_SIZE":"LARGE","INCLINATION":"53.0562","APOAPSIS":"548.239","EPOCH":"2022-06-29T20:31:36.141888","ELEMENT_SET_NO":"999","EPHEMERIS_TYPE":"0","COUNTRY_CODE":"US","LAUNCH_DATE":"2021-04-07","OBJECT_TYPE":"PAYLOAD","TIME_SYSTEM":"UTC","RA_OF_ASC_NODE":"86.7497"}];
